{
  "type": "FeatureCollection",
  "features": [
    {
      "type": "Feature",
      "properties": {
        "norad_id": 63772,
        "name": "BIOMASS",
        "group": "resource",
        "lat": -62.79702259976094,
        "lon": -22.8713765115208,
        "alt_km": 676.9043457792986,
        "timestamp": "2025-12-14T03:55:52.451299+00:00",
        "meta_object_name": "BIOMASS",
        "meta_object_id": "2025-090A",
        "meta_epoch": "2025-12-13T05:33:02.031264",
        "meta_mean_motion": 14.67542273,
        "meta_eccentricity": 0.00011696,
        "meta_inclination": 98.07,
        "meta_ra_of_asc_node": 172.2338,
        "meta_arg_of_pericenter": 79.5708,
        "meta_mean_anomaly": 280.5629,
        "meta_ephemeris_type": 0,
        "meta_classification_type": "U",
        "meta_norad_cat_id": 63772,
        "meta_element_set_no": 999,
        "meta_rev_at_epoch": 3341,
        "meta_bstar": 0.00038300186,
        "meta_mean_motion_dot": 2.125e-05,
        "meta_mean_motion_ddot": 0,
        "tle_line1": "1 63772U 25090A   25347.23127351  .00002125  00000+0  38300-3 0  9992",
        "tle_line2": "2 63772  98.0700 172.2338 0001169  79.5708 280.5629 14.67542273 33414"
      },
      "geometry": {
        "type": "Point",
        "coordinates": [
          -22.8713765115208,
          -62.79702259976094
        ]
      }
    },
    {
      "type": "Feature",
      "properties": {
        "norad_id": 64694,
        "name": "GOSAT-GW (IBUKI GW)",
        "group": "resource",
        "lat": 81.23359412205922,
        "lon": 170.12125531576132,
        "alt_km": 660.3832183197164,
        "timestamp": "2025-12-14T03:55:52.451309+00:00",
        "meta_object_name": "GOSAT-GW (IBUKI GW)",
        "meta_object_id": "2025-141A",
        "meta_epoch": "2025-12-13T06:14:04.025184",
        "meta_mean_motion": 14.67560112,
        "meta_eccentricity": 0.00014914,
        "meta_inclination": 98.0422,
        "meta_ra_of_asc_node": 282.7634,
        "meta_arg_of_pericenter": 85.3866,
        "meta_mean_anomaly": 274.7509,
        "meta_ephemeris_type": 0,
        "meta_classification_type": "U",
        "meta_norad_cat_id": 64694,
        "meta_element_set_no": 999,
        "meta_rev_at_epoch": 2457,
        "meta_bstar": 0.00034305138,
        "meta_mean_motion_dot": 1.899e-05,
        "meta_mean_motion_ddot": 0,
        "tle_line1": "1 64694U 25141A   25347.25976881  .00001899  00000+0  34305-3 0  9993",
        "tle_line2": "2 64694  98.0422 282.7634 0001491  85.3866 274.7509 14.67560112 24574"
      },
      "geometry": {
        "type": "Point",
        "coordinates": [
          170.12125531576132,
          81.23359412205922
        ]
      }
    },
    {
      "type": "Feature",
      "properties": {
        "norad_id": 64876,
        "name": "IONOSFERA-M 3",
        "group": "resource",
        "lat": -39.46209267409017,
        "lon": 122.85133316364472,
        "alt_km": 828.4544842235382,
        "timestamp": "2025-12-14T03:55:52.451319+00:00",
        "meta_object_name": "IONOSFERA-M 3",
        "meta_object_id": "2025-155A",
        "meta_epoch": "2025-12-13T06:37:38.557344",
        "meta_mean_motion": 14.21441229,
        "meta_eccentricity": 0.00022195,
        "meta_inclination": 98.5783,
        "meta_ra_of_asc_node": 309.127,
        "meta_arg_of_pericenter": 59.2679,
        "meta_mean_anomaly": 300.8717,
        "meta_ephemeris_type": 0,
        "meta_classification_type": "U",
        "meta_norad_cat_id": 64876,
        "meta_element_set_no": 999,
        "meta_rev_at_epoch": 1999,
        "meta_bstar": 8.6960294e-05,
        "meta_mean_motion_dot": 1.47e-06,
        "meta_mean_motion_ddot": 0,
        "tle_line1": "1 64876U 25155A   25347.27614071  .00000147  00000+0  86960-4 0  9992",
        "tle_line2": "2 64876  98.5783 309.1270 0002219  59.2679 300.8717 14.21441229 19991"
      },
      "geometry": {
        "type": "Point",
        "coordinates": [
          122.85133316364472,
          -39.46209267409017
        ]
      }
    },
    {
      "type": "Feature",
      "properties": {
        "norad_id": 64877,
        "name": "IONOSFERA-M 4",
        "group": "resource",
        "lat": 39.922164339108186,
        "lon": -57.34717572492746,
        "alt_km": 816.2658321739536,
        "timestamp": "2025-12-14T03:55:52.451330+00:00",
        "meta_object_name": "IONOSFERA-M 4",
        "meta_object_id": "2025-155B",
        "meta_epoch": "2025-12-13T07:28:08.226048",
        "meta_mean_motion": 14.21442454,
        "meta_eccentricity": 0.00015872,
        "meta_inclination": 98.5782,
        "meta_ra_of_asc_node": 309.0807,
        "meta_arg_of_pericenter": 63.0295,
        "meta_mean_anomaly": 297.1044,
        "meta_ephemeris_type": 0,
        "meta_classification_type": "U",
        "meta_norad_cat_id": 64877,
        "meta_element_set_no": 999,
        "meta_rev_at_epoch": 1999,
        "meta_bstar": 9.229153e-05,
        "meta_mean_motion_dot": 1.59e-06,
        "meta_mean_motion_ddot": 0,
        "tle_line1": "1 64877U 25155B   25347.31120632  .00000159  00000+0  92292-4 0  9991",
        "tle_line2": "2 64877  98.5782 309.0807 0001587  63.0295 297.1044 14.21442454 19992"
      },
      "geometry": {
        "type": "Point",
        "coordinates": [
          -57.34717572492746,
          39.922164339108186
        ]
      }
    },
    {
      "type": "Feature",
      "properties": {
        "norad_id": 64899,
        "name": "MICROCARB",
        "group": "resource",
        "lat": 81.02751102343433,
        "lon": -53.51665717028354,
        "alt_km": 638.69838329499,
        "timestamp": "2025-12-14T03:55:52.451340+00:00",
        "meta_object_name": "MICROCARB",
        "meta_object_id": "2025-156A",
        "meta_epoch": "2025-12-13T04:39:59.514048",
        "meta_mean_motion": 14.72058192,
        "meta_eccentricity": 0.00171655,
        "meta_inclination": 98.0025,
        "meta_ra_of_asc_node": 62.5326,
        "meta_arg_of_pericenter": 143.354,
        "meta_mean_anomaly": 216.8845,
        "meta_ephemeris_type": 0,
        "meta_classification_type": "U",
        "meta_norad_cat_id": 64899,
        "meta_element_set_no": 999,
        "meta_rev_at_epoch": 2060,
        "meta_bstar": 0.00018626373,
        "meta_mean_motion_dot": 1.123e-05,
        "meta_mean_motion_ddot": 0,
        "tle_line1": "1 64899U 25156A   25347.19443882  .00001123  00000+0  18626-3 0  9997",
        "tle_line2": "2 64899  98.0025  62.5326 0017165 143.3540 216.8845 14.72058192 20607"
      },
      "geometry": {
        "type": "Point",
        "coordinates": [
          -53.51665717028354,
          81.02751102343433
        ]
      }
    },
    {
      "type": "Feature",
      "properties": {
        "norad_id": 64900,
        "name": "CO3D 3",
        "group": "resource",
        "lat": 21.85151197121284,
        "lon": 61.509965336419626,
        "alt_km": 508.3921356019264,
        "timestamp": "2025-12-14T03:55:52.451350+00:00",
        "meta_object_name": "CO3D 3",
        "meta_object_id": "2025-156B",
        "meta_epoch": "2025-12-12T04:26:31.994592",
        "meta_mean_motion": 15.20160723,
        "meta_eccentricity": 0.00054722,
        "meta_inclination": 97.4437,
        "meta_ra_of_asc_node": 62.5626,
        "meta_arg_of_pericenter": 185.32,
        "meta_mean_anomaly": 174.7978,
        "meta_ephemeris_type": 0,
        "meta_classification_type": "U",
        "meta_norad_cat_id": 64900,
        "meta_element_set_no": 999,
        "meta_rev_at_epoch": 2112,
        "meta_bstar": 0.0011050076,
        "meta_mean_motion_dot": 0.0002391,
        "meta_mean_motion_ddot": 0,
        "tle_line1": "1 64900U 25156B   25346.18509253  .00023910  00000+0  11050-2 0  9994",
        "tle_line2": "2 64900  97.4437  62.5626 0005472 185.3200 174.7978 15.20160723 21125"
      },
      "geometry": {
        "type": "Point",
        "coordinates": [
          61.509965336419626,
          21.85151197121284
        ]
      }
    },
    {
      "type": "Feature",
      "properties": {
        "norad_id": 64901,
        "name": "CO3D 4",
        "group": "resource",
        "lat": 21.159997214974474,
        "lon": 61.61089960426333,
        "alt_km": 505.7699691459011,
        "timestamp": "2025-12-14T03:55:52.451360+00:00",
        "meta_object_name": "CO3D 4",
        "meta_object_id": "2025-156C",
        "meta_epoch": "2025-12-12T15:30:13.261248",
        "meta_mean_motion": 15.20210943,
        "meta_eccentricity": 0.00010187,
        "meta_inclination": 97.4314,
        "meta_ra_of_asc_node": 63.0114,
        "meta_arg_of_pericenter": 237.4062,
        "meta_mean_anomaly": 122.7075,
        "meta_ephemeris_type": 0,
        "meta_classification_type": "U",
        "meta_norad_cat_id": 64901,
        "meta_element_set_no": 999,
        "meta_rev_at_epoch": 2119,
        "meta_bstar": 5.204221e-05,
        "meta_mean_motion_dot": 1.059e-05,
        "meta_mean_motion_ddot": 0,
        "tle_line1": "1 64901U 25156C   25346.64598682  .00001059  00000+0  52042-4 0  9998",
        "tle_line2": "2 64901  97.4314  63.0114 0001018 237.4062 122.7075 15.20210943 21193"
      },
      "geometry": {
        "type": "Point",
        "coordinates": [
          61.61089960426333,
          21.159997214974474
        ]
      }
    }
  ]
}